[{"OBJECT_NAME":"OBJECT F","OBJECT_ID":"2022-023F","EPOCH":"2026-03-09T23:55:35.397408","MEAN_MOTION":15.18257694,"ECCENTRICITY":0.01194645,"INCLINATION":63.4547,"RA_OF_ASC_NODE":250.628,"ARG_OF_PERICENTER":343.8947,"MEAN_ANOMALY":15.838,"EPHEMERIS_TYPE":0,"CLASSIFICATION_TYPE":"U","NORAD_CAT_ID":51951,"ELEMENT_SET_NO":999,"REV_AT_EPOCH":22265,"BSTAR":0.00028900174,"MEAN_MOTION_DOT":6.929e-5,"MEAN_MOTION_DDOT":0},{"OBJECT_NAME":"STARLINK-4082","OBJECT_ID":"2022-053C","EPOCH":"2026-03-09T11:54:30.769344","MEAN_MOTION":15.08840906,"ECCENTRICITY":0.0001454,"INCLINATION":53.2172,"RA_OF_ASC_NODE":154.9911,"ARG_OF_PERICENTER":104.3967,"MEAN_ANOMALY":255.7187,"EPHEMERIS_TYPE":0,"CLASSIFICATION_TYPE":"U","NORAD_CAT_ID":52658,"ELEMENT_SET_NO":999,"REV_AT_EPOCH":21120,"BSTAR":3.1752167e-5,"MEAN_MOTION_DOT":2.17e-6,"MEAN_MOTION_DDOT":0}]
